SatCatId,ObjectName,LaunchYear,OrbitalPeriod,LaunchMass,StatusCode,Inclination,Status,UcsData,OrbitClassEstimated,LaunchSiteCountry,Owner,UseType,Purpose,LaunchVehicleClass,TLE1,TLE2,MeanMotion,Eccentricity,OrbitClass
51962,STARLINK-3697,2022,95.59,260.0,+,53.06,Active,1,LEO,USA,USA,Commercial,Communications,Falcon,1 51962U 22025G   24343.23356877  .00002490  00000+0  18593-3 0  9994,2 51962  53.0540 275.5342 0001467  99.3680 260.7475 15.06410949152180,15.06410949,0.0001467,LEO
51963,STARLINK-3675,2022,95.49,260.0,+,53.06,Active,1,LEO,USA,USA,Commercial,Communications,Falcon,1 51963U 22025H   24343.08787841  .00001825  00000+0  13550-3 0  9996,2 51963  53.0582 272.4805 0001310  94.6299 265.4840 15.08036760152217,15.0803676,0.000131,LEO
51964,STARLINK-3690,2022,95.59,260.0,+,53.06,Active,1,LEO,USA,USA,Commercial,Communications,Falcon,1 51964U 22025J   24343.54421276  .00000627  00000+0  61013-4 0  9992,2 51964  53.0563 274.7267 0001949  89.9111 270.2102 15.06398020152226,15.0639802,0.0001949,LEO
51965,STARLINK-3696,2022,95.59,260.0,+,53.05,Active,1,LEO,USA,USA,Commercial,Communications,Falcon,1 51965U 22025K   24343.26206391  .00002089  00000+0  15908-3 0  9996,2 51965  53.0570 284.8200 0001859  96.9338 263.1863 15.06406392152051,15.06406392,0.0001859,LEO
51966,STARLINK-3699,2022,95.59,260.0,+,53.05,Active,1,LEO,USA,USA,Commercial,Communications,Falcon,1 51966U 22025L   24343.56661903 -.00000182  00000+0  66818-5 0  9995,2 51966  53.0568 278.4359 0001899 102.4233 257.6968 15.06397901152176,15.06397901,0.0001899,LEO
51968,STARLINK-3681,2022,95.59,260.0,+,53.06,Active,1,LEO,USA,USA,Commercial,Communications,Falcon,1 51968U 22025N   24343.52577892  .00000573  00000+0  57355-4 0  9994,2 51968  53.0550 274.7236 0001744  80.3227 279.7959 15.06390430152229,15.0639043,0.0001744,LEO
51969,STARLINK-3680,2022,95.59,260.0,+,53.06,Active,1,LEO,USA,USA,Commercial,Communications,Falcon,1 51969U 22025P   24343.10192190  .00001074  00000+0  90976-4 0  9996,2 51969  53.0549 276.9290 0001521  98.7883 261.3278 15.06403457152142,15.06403457,0.0001521,LEO
51970,STARLINK-3677,2022,95.59,260.0,+,53.06,Active,1,LEO,USA,USA,Commercial,Communications,Falcon,1 51970U 22025Q   24343.56293823 -.00000954  00000+0 -45160-4 0  9996,2 51970  53.0555 278.5293 0001497 108.9330 251.1821 15.06401935152178,15.06401935,0.0001497,LEO
51971,STARLINK-3669,2022,95.59,260.0,+,53.06,Active,1,LEO,USA,USA,Commercial,Communications,Falcon,1 51971U 22025R   24343.06502803 -.00000331  00000+0 -33306-5 0  9992,2 51971  53.0562 276.7461 0001697  86.8859 273.2324 15.06394278152158,15.06394278,0.0001697,LEO
51972,STARLINK-3671,2022,95.59,260.0,+,53.05,Active,1,LEO,USA,USA,Commercial,Communications,Falcon,1 51972U 22025S   24343.55188436  .00000265  00000+0  36683-4 0  9993,2 51972  53.0565 278.5630 0001518  92.7769 267.3393 15.06400834152176,15.06400834,0.0001518,LEO
51973,STARLINK-3679,2022,95.59,260.0,+,53.06,Active,1,LEO,USA,USA,Commercial,Communications,Falcon,1 51973U 22025T   24343.09481687  .00001014  00000+0  86931-4 0  9991,2 51973  53.0551 280.5601 0001235  91.2335 268.8796 15.06400717152108,15.06400717,0.0001235,LEO
51974,STARLINK-3672,2022,95.59,260.0,+,53.06,Active,1,LEO,USA,USA,Commercial,Communications,Falcon,1 51974U 22025U   24343.54819443  .00000321  00000+0  40434-4 0  9995,2 51974  53.0547 278.5804 0001455 105.6223 254.4926 15.06402131152160,15.06402131,0.0001455,LEO
51975,STARLINK-3674,2022,95.59,260.0,+,53.06,Active,1,LEO,USA,USA,Commercial,Communications,Falcon,1 51975U 22025V   24343.53214474  .00000597  00000+0  58996-4 0  9995,2 51975  53.0576 274.2480 0001817  85.6652 274.4544 15.06400196152236,15.06400196,0.0001817,LEO
51976,STARLINK-3663,2022,95.0,260.0,+,53.22,Active,1,LEO,USA,USA,Commercial,Communications,Falcon,1 51976U 22025W   24343.54758865  .00053670  00000+0  27607-2 0  9997,2 51976  53.2163 284.6545 0008845  78.3066 281.8921 15.15921031152231,15.15921031,0.0008845,LEO
51977,STARLINK-3660,2022,95.44,260.0,+,53.22,Active,1,LEO,USA,USA,Commercial,Communications,Falcon,1 51977U 22025X   24343.29026353  .00003283  00000+0  22420-3 0  9994,2 51977  53.2176 267.9869 0001408  94.8425 265.2728 15.08852755152430,15.08852755,0.0001408,LEO
51978,STARLINK-3666,2022,91.95,260.0,P,53.22,Active,1,LEO,USA,USA,Commercial,Communications,Falcon,1 51978U 22025Y   24343.58334491  .01228906  00000+0  96964-2 0  9997,2 51978  53.2153 280.7962 0001156 104.6169 226.9913 15.68174949  5792,15.68174949,0.0001156,LEO
51979,STARLINK-3656,2022,95.44,260.0,+,53.22,Active,1,LEO,USA,USA,Commercial,Communications,Falcon,1 51979U 22025Z   24343.55980846 -.00000519  00000+0 -14555-4 0  9993,2 51979  53.2191 286.7680 0001470  95.7929 264.3231 15.08826757152204,15.08826757,0.000147,LEO
51980,STARLINK-3649,2022,95.44,260.0,+,53.22,Active,1,LEO,USA,USA,Commercial,Communications,Falcon,1 51980U 22025AA  24343.27275167  .00001099  00000+0  87126-4 0  9993,2 51980  53.2173 288.0534 0001612  91.8929 268.2248 15.08848703152154,15.08848703,0.0001612,LEO
51981,STARLINK-3635,2022,95.44,260.0,+,53.22,Active,1,LEO,USA,USA,Commercial,Communications,Falcon,1 51981U 22025AB  24343.55243135  .00002606  00000+0  18171-3 0  9993,2 51981  53.2195 286.8010 0001622 101.1382 258.9793 15.08847543152199,15.08847543,0.0001622,LEO
51982,STARLINK-3650,2022,91.56,260.0,P,53.21,Active,1,LEO,USA,USA,Commercial,Communications,Falcon,1 51982U 22025AC  24343.58334491  .01252367  00000+0  74767-2 0  9997,2 51982  53.2122 279.8995 0000952 111.3948   5.2094 15.74795852  5833,15.74795852,9.52e-05,LEO
51983,STARLINK-3655,2022,95.44,260.0,+,53.22,Active,1,LEO,USA,USA,Commercial,Communications,Falcon,1 51983U 22025AD  24343.54875397 -.00000342  00000+0 -33928-5 0  9991,2 51983  53.2179 286.8099 0001122  70.5112 289.6002 15.08840568152199,15.08840568,0.0001122,LEO
51984,STARLINK-3664,2022,95.44,260.0,+,53.22,Active,1,LEO,USA,USA,Commercial,Communications,Falcon,1 51984U 22025AE  24343.58651561  .00000819  00000+0  69538-4 0  9993,2 51984  53.2195 286.7335 0001687  88.6919 271.4267 15.08850089152204,15.08850089,0.0001687,LEO
51985,STARLINK-3651,2022,95.44,260.0,+,53.22,Active,1,LEO,USA,USA,Commercial,Communications,Falcon,1 51985U 22025AF  24343.54234901  .00002157  00000+0  15355-3 0  9999,2 51985  53.2169 286.8459 0001349  65.6837 294.4296 15.08845444152197,15.08845444,0.0001349,LEO
51986,STARLINK-3645,2022,95.44,260.0,+,53.22,Active,1,LEO,USA,USA,Commercial,Communications,Falcon,1 51986U 22025AG  24343.55609379  .00018366  00000+0  11686-2 0  9997,2 51986  53.2177 286.6288 0001414 102.9266 257.1884 15.08853549152205,15.08853549,0.0001414,LEO
51987,STARLINK-3644,2022,95.44,260.0,+,53.22,Active,1,LEO,USA,USA,Commercial,Communications,Falcon,1 51987U 22025AH  24343.58555110  .00007618  00000+0  49603-3 0  9993,2 51987  53.2172 286.6516 0001551  81.1394 278.9773 15.08853218152208,15.08853218,0.0001551,LEO
51988,STARLINK-3640,2022,95.44,260.0,+,53.22,Active,1,LEO,USA,USA,Commercial,Communications,Falcon,1 51988U 22025AJ  24343.56715625 -.00000200  00000+0  55170-5 0  9990,2 51988  53.2184 286.7323 0001718  89.3636 270.7553 15.08840794152204,15.08840794,0.0001718,LEO
51989,STARLINK-3642,2022,95.44,260.0,+,53.22,Active,1,LEO,USA,USA,Commercial,Communications,Falcon,1 51989U 22025AK  24343.11819132 -.00002368  00000+0 -13082-3 0  9992,2 51989  53.2171 288.7499 0000735  98.6681 261.4395 15.08829227152139,15.08829227,7.35e-05,LEO
51990,STARLINK-3657,2022,95.44,260.0,+,53.22,Active,1,LEO,USA,USA,Commercial,Communications,Falcon,1 51990U 22025AL  24343.08691218  .00000458  00000+0  46846-4 0  9994,2 51990  53.2180 268.8907 0001235  94.2081 265.9053 15.08840359152405,15.08840359,0.0001235,LEO
51991,STARLINK-3652,2022,95.44,260.0,+,53.22,Active,1,LEO,USA,USA,Commercial,Communications,Falcon,1 51991U 22025AM  24343.57452445  .00000375  00000+0  41652-4 0  9994,2 51991  53.2180 286.7036 0001314  88.9376 271.1767 15.08835973152208,15.08835973,0.0001314,LEO
51992,STARLINK-3643,2022,95.44,260.0,+,53.22,Active,1,LEO,USA,USA,Commercial,Communications,Falcon,1 51992U 22025AN  24343.20834867  .00002032  00000+0  14568-3 0  9994,2 51992  53.2163 268.3429 0001519  96.1444 263.9721 15.08853501151997,15.08853501,0.0001519,LEO
51993,STARLINK-3648,2022,95.44,260.0,+,53.22,Active,1,LEO,USA,USA,Commercial,Communications,Falcon,1 51993U 22025AP  24343.56347418 -.00001249  00000+0 -60399-4 0  9990,2 51993  53.2187 286.7501 0001725  83.2599 276.8590 15.08835655152208,15.08835655,0.0001725,LEO
51994,STARLINK-3647,2022,95.44,260.0,+,53.22,Active,1,LEO,USA,USA,Commercial,Communications,Falcon,1 51994U 22025AQ  24343.53587752  .00000290  00000+0  36350-4 0  9998,2 51994  53.2185 266.8694 0001630  96.7679 263.3498 15.08836725152052,15.08836725,0.000163,LEO
51995,STARLINK-3636,2022,95.44,260.0,+,53.22,Active,1,LEO,USA,USA,Commercial,Communications,Falcon,1 51995U 22025AR  24343.21571275  .00000063  00000+0  22044-4 0  9990,2 51995  53.2182 268.3075 0001528 111.1857 248.9299 15.08840266151991,15.08840266,0.0001528,LEO
51996,STARLINK-3538,2022,95.44,260.0,+,53.22,Active,1,LEO,USA,USA,Commercial,Communications,Falcon,1 51996U 22025AS  24343.53219442  .00002507  00000+0  17551-3 0  9992,2 51996  53.2178 266.8881 0001108  94.7176 265.3943 15.08842827152051,15.08842827,0.0001108,LEO
51997,STARLINK-3589,2022,95.44,260.0,+,53.22,Active,1,LEO,USA,USA,Commercial,Communications,Falcon,1 51997U 22025AT  24343.07955129 -.00000191  00000+0  60706-5 0  9991,2 51997  53.2183 268.9225 0001445 100.4478 259.6677 15.08846162151973,15.08846162,0.0001445,LEO
51998,STARLINK-3618,2022,95.44,260.0,+,53.22,Active,1,LEO,USA,USA,Commercial,Communications,Falcon,1 51998U 22025AU  24343.50275905 -.00000707  00000+0 -26300-4 0  9992,2 51998  53.2187 267.0202 0001667  78.8661 281.2518 15.08836692152053,15.08836692,0.0001667,LEO
